[{"OBJECT_NAME":"JILIN-1 06","OBJECT_ID":"2017-074C","EPOCH":"2026-03-09T22:46:57.173376","MEAN_MOTION":15.32444387,"ECCENTRICITY":0.00061285,"INCLINATION":97.4715,"RA_OF_ASC_NODE":171.0354,"ARG_OF_PERICENTER":223.0031,"MEAN_ANOMALY":137.0732,"EPHEMERIS_TYPE":0,"CLASSIFICATION_TYPE":"U","NORAD_CAT_ID":43024,"ELEMENT_SET_NO":999,"REV_AT_EPOCH":45863,"BSTAR":0.00028431628,"MEAN_MOTION_DOT":8.833e-5,"MEAN_MOTION_DDOT":0},{"OBJECT_NAME":"STARLINK-34561","OBJECT_ID":"2025-167D","EPOCH":"2026-03-09T06:35:10.352832","MEAN_MOTION":15.30202692,"ECCENTRICITY":0.00012005,"INCLINATION":53.1613,"RA_OF_ASC_NODE":25.9812,"ARG_OF_PERICENTER":83.3897,"MEAN_ANOMALY":276.724,"EPHEMERIS_TYPE":0,"CLASSIFICATION_TYPE":"U","NORAD_CAT_ID":65081,"ELEMENT_SET_NO":999,"REV_AT_EPOCH":3470,"BSTAR":0.0011595411,"MEAN_MOTION_DOT":0.00034144,"MEAN_MOTION_DDOT":0}]
